ONEWEB-0444             
1 51638U 22012S   23311.84166579 -.00000635  00000+0 -18540-2 0  9991
2 51638  87.8925 225.4047 0002116  64.5621 295.5725 13.10377896 85904
ONEWEB-0445             
1 51639U 22012T   23312.32092065 -.00000425  00000+0 -12528-2 0  9991
2 51639  87.8928 225.2963 0001869  84.9506 275.1834 13.10368533 85964
ONEWEB-0446             
1 51640U 22012U   23311.84005493 -.00000284  00000+0 -84904-3 0  9999
2 51640  87.8922 225.3961 0001851  75.8899 284.2434 13.10374192 85903
ONEWEB-0448             
1 51641U 22012V   23312.30307571  .00000624  00000+0  17499-2 0  9994
2 51641  87.8921 225.3060 0001792  65.2112 294.9202 13.10369481 85926
ONEWEB-0449             
1 51642U 22012W   23312.00252363 -.00000468  00000+0 -13779-2 0  9995
2 51642  87.8921 225.3697 0002193  72.2778 287.8588 13.10374378 85902
ONEWEB-0451             
1 51643U 22012X   23312.19681662  .00000015  00000+0  51208-5 0  9992
2 51643  87.9182 195.0844 0001804  69.1479 290.9846 13.17649508 89599
ONEWEB-0452             
1 51644U 22012Y   23312.11876997  .00000293  00000+0  72075-3 0  9993
2 51644  87.9245 195.1247 0002230  78.1325 282.0056 13.17646667 89590
ONEWEB-0455             
1 51645U 22012Z   23311.57958842  .00000622  00000+0  26994-3 0  9998
2 51645  87.5385 180.4912 0016920 355.5439   4.5598 14.22632987 90651
